STARLINK-11552 [DTC]    
1 62907U 25027A   25180.70985736  .00131421  00000+0  10083-2 0  9996
2 62907  43.0005  72.6669 0001314 275.8679  84.2039 15.70917354 23392
STARLINK-11561 [DTC]    
1 62908U 25027B   25180.74689151  .00155245  00000+0  11886-2 0  9995
2 62908  43.0029  72.0655 0003808 274.1489  85.8944 15.70880418 23302
STARLINK-11567 [DTC]    
1 62909U 25027C   25180.08995323  .00188261  00000+0  14349-2 0  9995
2 62909  43.0009  76.6232 0002113 269.7706  90.2920 15.70885433 23263
STARLINK-11569 [DTC]    
1 62910U 25027D   25180.75751000  .00217467  00000+0  16455-2 0  9994
2 62910  43.0009  72.1519 0001963 253.0109 107.0544 15.70966906 23353
STARLINK-11537 [DTC]    
1 62911U 25027E   25180.70454680  .00147705  00000+0  11298-2 0  9991
2 62911  42.9991  72.6191 0002245 282.4540  77.6076 15.70932723 23400
STARLINK-11565 [DTC]    
1 62912U 25027F   25179.14669331  .00114239  00000+0  88070-3 0  9998
2 62912  43.0002  81.5624 0002139 255.9017 104.1612 15.70863424 23124
STARLINK-11564 [DTC]    
1 62913U 25027G   25180.71516653  .00130472  00000+0  10012-2 0  9999
2 62913  43.0011  72.7077 0001044 278.7959  81.2791 15.70916587 23347
STARLINK-11566 [DTC]    
1 62914U 25027H   25180.72047503  .00153214  00000+0  11712-2 0  9991
2 62914  42.9997  72.7467 0001304 236.7175 123.3568 15.70930479 23396
STARLINK-11555 [DTC]    
1 62915U 25027J   25180.72138621  .00174346  00000+0  13282-2 0  9997
2 62915  43.0000  72.7545 0001331 259.8793 100.1925 15.70942307 23408
STARLINK-11430 [DTC]    
1 62916U 25027K   25180.73109303  .00196485  00000+0  14920-2 0  9992
2 62916  43.0002  72.8305 0001561 237.8067 122.2649 15.70948834 23400
STARLINK-11560 [DTC]    
1 62917U 25027L   25180.12698733  .00114748  00000+0  88454-3 0  9992
2 62917  43.0001  76.0251 0001645 264.2868  95.7813 15.70864474 23271
STARLINK-11562 [DTC]    
1 62918U 25027M   25180.75220072  .00142280  00000+0  10907-2 0  9998
2 62918  43.0032  72.1026 0002968 271.9556  88.0971 15.70897096 23413
STARLINK-11457 [DTC]    
1 62919U 25027N   25180.74158115  .00131715  00000+0  10124-2 0  9998
2 62919  43.0003  72.0190 0001817 254.9413 105.1254 15.70872480 23356
STARLINK-32921          
1 62920U 25027P   25180.83898865  .00021502  00000+0  78849-3 0  9994
2 62920  42.9949 116.7022 0000206 248.3196 111.7633 15.27585130 22876
STARLINK-32917          
1 62921U 25027Q   25180.85314154  .00020000  00000+0  73424-3 0  9997
2 62921  43.0005 116.8024 0000386 225.0713 135.0107 15.27584530 22879
STARLINK-32916          
1 62922U 25027R   25180.84287467  .00020505  00000+0  75298-3 0  9994
2 62922  42.9987 116.7244 0000246 201.6478 158.4363 15.27562277 22870
STARLINK-32905          
1 62923U 25027S   25180.86470389  .00011616  00000+0  43091-3 0  9993
2 62923  43.0016 116.8986 0000819 273.0825  86.9933 15.27585588 22873
STARLINK-32871          
1 62924U 25027T   25180.19541838  .00012201  00000+0  45209-3 0  9992
2 62924  42.9954 120.4642 0001017 256.3270 103.7468 15.27586080 22770
STARLINK-32920          
1 62925U 25027U   25180.19156418  .00013719  00000+0  50708-3 0  9994
2 62925  43.0001 120.4351 0000700 269.3473  90.7298 15.27583944 22772
STARLINK-32922          
1 62926U 25027V   25180.86084087  .00012570  00000+0  46579-3 0  9996
2 62926  43.0014 116.8640 0000985 276.7763  83.2977 15.27561910 22866
STARLINK-32891          
1 62927U 25027W   25180.80187323  .00025945  00000+0  94807-3 0  9995
2 62927  43.0022 117.2850 0002084 245.8625 114.2009 15.27612839 22835
STARLINK-32728          
1 62948U 25029A   25180.81029659  .00021188  00000+0  72523-3 0  9994
2 62948  53.1592 324.7182 0000992  88.8079 271.3035 15.30209717 22328
STARLINK-32857          
1 62949U 25029B   25180.66383842  .00013027  00000+0  45107-3 0  9996
2 62949  53.1630 325.2320 0001192  85.6820 274.4317 15.30208910 22628
STARLINK-32850          
1 62950U 25029C   25180.57066541  .00017084  00000+0  58715-3 0  9998
2 62950  53.1596 328.1942 0001199  90.2252 269.8886 15.30224268 22578
STARLINK-32875          
1 62951U 25029D   25180.55958964  .00000508  00000+0  29260-4 0  9993
2 62951  53.1586 325.9982 0000896  98.0847 262.0255 15.30194232 22602
STARLINK-32865          
1 62952U 25029E   25180.56433782 -.00001494  00000+0 -38325-4 0  9990
2 62952  53.1590 328.1544 0001187  86.4037 273.7099 15.30192306 22574
STARLINK-32884          
1 62953U 25029F   25180.81768389  .00025580  00000+0  87267-3 0  9991
2 62953  53.1589 324.7642 0001128  84.1859 275.9271 15.30205770 22640
STARLINK-32874          
1 62954U 25029G   25180.80396505  .00029687  00000+0  10105-2 0  9996
2 62954  53.1590 324.6772 0001413  81.6751 278.4410 15.30198160 22643
STARLINK-32880          
1 62955U 25029H   25180.56328355  .00015849  00000+0  54618-3 0  9991
2 62955  53.1586 328.1462 0001262  92.0273 268.0872 15.30194900 22578
STARLINK-32815          
1 62956U 25029J   25180.61962739  .00013300  00000+0  46039-3 0  9996
2 62956  53.1588 325.6598 0001136  81.3862 278.7268 15.30197954 22612
STARLINK-32879          
1 62957U 25029K   25180.78350045  .00006694  00000+0  23792-3 0  9995
2 62957  53.1575 327.3902 0001034  94.0746 266.0373 15.30200367 22616
STARLINK-32885          
1 62958U 25029L   25180.62068412  .00003308  00000+0  12379-3 0  9991
2 62958  53.1589 325.6681 0001105  71.6117 288.5004 15.30189958 22600
STARLINK-32896          
1 62959U 25029M   25180.73084841  .00008990  00000+0  31525-3 0  9994
2 62959  53.1601 327.7699 0001097  97.5695 262.5430 15.30202324 22604
STARLINK-32877          
1 62960U 25029N   25180.78983228  .00003591  00000+0  13337-3 0  9991
2 62960  53.1593 327.4299 0001135  82.6254 277.4876 15.30187854 22551
STARLINK-32889          
1 62961U 25029P   25180.79299817  .00006551  00000+0  23307-3 0  9994
2 62961  53.1595 327.4503 0001219  92.2053 267.9088 15.30203696 22595
STARLINK-32858          
1 62962U 25029Q   25180.66858699  .00021219  00000+0  72644-3 0  9996
2 62962  53.1603 327.3833 0000925 108.0631 252.0471 15.30202501 22485
STARLINK-32882          
1 62963U 25029R   25180.62279365  .00004171  00000+0  15292-3 0  9994
2 62963  53.1592 325.6790 0001051  83.3329 276.7791 15.30187369 22602
STARLINK-32887          
1 62964U 25029S   25180.81346125  .00025281  00000+0  86284-3 0  9999
2 62964  53.1591 324.7368 0001189  79.4153 280.6982 15.30197995 22631
STARLINK-32836          
1 62965U 25029T   25180.61329657  .00019415  00000+0  66566-3 0  9992
2 62965  53.1589 325.6180 0001162  68.1674 291.9450 15.30212360 22601
STARLINK-32888          
1 62966U 25029U   25180.78559568  .00009759  00000+0  33754-3 0  9990
2 62966  53.1602 327.4021 0001356  72.8063 287.3086 15.30551665 22597
STARLINK-32897          
1 62967U 25029V   25180.62332325  .00006211  00000+0  22167-3 0  9990
2 62967  53.1589 327.8047 0001249  55.6157 304.4962 15.30197772 22575
STARLINK-32863          
1 62968U 25029W   25180.71185575  .00005373  00000+0  19339-3 0  9999
2 62968  53.1595 327.6514 0001355  95.5699 264.5456 15.30200377 22538
STARLINK-32894          
1 62969U 25029X   25180.61699044  .00013425  00000+0  46445-3 0  9995
2 62969  53.1580 327.7680 0001162  97.3002 262.8131 15.30209163 22579
STARLINK-32826          
1 62970U 25029Y   25180.61065863  .00013515  00000+0  46750-3 0  9992
2 62970  53.1624 327.7276 0001468 100.6608 259.4559 15.30208219 22577
STARLINK-11543 [DTC]    
1 62981U 25031A   25180.73933290  .00124175  00000+0  95454-3 0  9998
2 62981  43.0003  85.8277 0002710 274.8230  85.2329 15.70894819 22961
STARLINK-11458 [DTC]    
1 62982U 25031B   25180.88242700  .00061919  00000+0  48136-3 0  9995
2 62982  43.0009  85.1887 0002932 291.9362  68.1193 15.70891041 22985
STARLINK-11417 [DTC]    
1 62983U 25031C   25180.79242654  .00183654  00000+0  13974-2 0  9996
2 62983  43.0010  86.2543 0002214 257.0693 102.9927 15.70940617 22966
STARLINK-11544 [DTC]    
1 62984U 25031D   25180.74995164  .00189303  00000+0  14389-2 0  9991
2 62984  43.0006  85.9115 0001823 241.5858 118.4826 15.70947662 22900
STARLINK-11582 [DTC]    
1 62985U 25031E   25180.76587953  .00160597  00000+0  12267-2 0  9994
2 62985  42.9999  86.0394 0001597 246.1798 113.8902 15.70923990 22961
STARLINK-11571 [DTC]    
1 62986U 25031F   25180.73402337  .00235483  00000+0  17798-2 0  9995
2 62986  42.9999  85.7822 0002103 253.8900 106.1736 15.70938056 22967
STARLINK-11539 [DTC]    
1 62987U 25031G   25180.76057037  .00226990  00000+0  17205-2 0  9998
2 62987  43.0002  85.9956 0001692 263.4631  96.6044 15.70896729 22960
STARLINK-11542 [DTC]    
1 62988U 25031H   25180.74464266  .00178137  00000+0  13561-2 0  9993
2 62988  42.9969  85.8656 0001054 251.2887 108.7866 15.70947151 22791
STARLINK-11573 [DTC]    
1 62989U 25031J   25180.77649950  .00123990  00000+0  95013-3 0  9992
2 62989  43.0022  86.1225 0004860 289.3965  70.6377 15.70961206 22901
STARLINK-11572 [DTC]    
1 62990U 25031K   25180.75086317  .00136892  00000+0  10490-2 0  9994
2 62990  42.9987  85.9168 0000542 219.5003 140.5825 15.70927339 22965
STARLINK-11583 [DTC]    
1 62991U 25031L   25180.78180687  .00127829  00000+0  98342-3 0  9996
2 62991  42.9997  86.1641 0001238 244.2102 115.8637 15.70865100 22967
STARLINK-11570 [DTC]    
1 62992U 25031M   25180.78711524  .00182623  00000+0  13930-2 0  9999
2 62992  43.0020  86.2064 0002047 256.7254 103.3386 15.70885195 22950
STARLINK-11576 [DTC]    
1 62993U 25031N   25180.77118881  .00187616  00000+0  14230-2 0  9997
2 62993  43.0015  86.0802 0003149 287.0349  73.0173 15.71001922 22955
STARLINK-32899          
1 62994U 25031P   25180.85906704  .00017341  00000+0  63835-3 0  9999
2 62994  43.0028 131.5759 0000887 277.3364  82.7386 15.27572394 22390
STARLINK-32819          
1 62995U 25031Q   25180.23717247  .00011101  00000+0  41224-3 0  9990
2 62995  43.0000 134.6397 0000798 268.2950  91.7810 15.27586684 22337
